MUNICIPIO,ENTE,OUVIDOR,TELEFONE,EMAIL,SITE,ENDERECO,HORARIO,OUVIDOR2025,TELEFONE2025,EMAIL2025,ENDERECO2025
ABAIARA,Prefeitura,Alice Rodrigues,(85) 98869-0116,ouvidoria@abaiara.ce.gov.br,https://abaiara.ce.gov.br/,"Rua Expedito Oliveira das Neves, nº 70 – Centro – Abaiara/CE",8h-12h / 13h-17h,Paula Vitória da Silva Moreira,Não informado,,
ACARAPE,Prefeitura,Thiago Soares Barroso de Freitas,,ouvidoria@acarape.ce.gov.br,https://acarape.ce.gov.br/,"Rua José Guilherme Costa, s/n - Centro - CEP: 62785-000 – Acarape\CE",,,,,
ACARAÚ,Prefeitura,João Mayson M. Guilherme,(88) 9.9610.6664,ouvidoria@acarape.ce.gov.br,https://acarau.ce.gov.br/,Centro Administrativo de Acarau - Sala da Ouvidoria,,,,,
ACOPIARA,Prefeitura,Juliana Feitosa de Sousa,(88) 9.9721.8838,ouvidoriaacopiara@gmail.com,https://www.acopiara.ce.gov.br/,"AV. JOSÉ MARQUES FILHO,S/N VILA AROEIRA, CEP: 63560-000",,,,,
AIUABA,Prefeitura,PREFEITURA,(88) 3524-1103 | (88) 3524-1253,aiuabaouvidoria@gmail.com,https://www.aiuaba.ce.gov.br/,"Rua Niceas Arraes, 498, Centro - Aiuaba/CE",,,,,
ALCÂNTARAS,Prefeitura,PREFEITURA,(88) 3640.1033,,https://alcantaras.ce.gov.br/,,,,,,
ALTANEIRA,Prefeitura,Antônio Pereira da Silva,(88) 99460-2606,ouvidoria@altaneira.ce.gov.br,https://www.altaneira.ce.gov.br/portal,"Rua Joaquim Soares da Silva, 406 - Centro - Altaneira/CE ",,,,,
ALTO SANTO,Prefeitura,Francisco Wanderson de O. F,8899255488,ouvidoria@altosanto.ce.gov.br,https://altosanto.ce.gov.br/,"Rua Coronel Simplício Bezerra, 198 - Centro - 62.970-000 | Alto Santo – CE",,,,,
AMONTADA,Prefeitura,Maria Irisnalda dos Santos,(88) 9.9764-2573,ouvidoriaearticulacaoamontada@gmail.com,https://www.amontada.ce.gov.br/,"Avenida General Alípio dos Santos, 1343- Centro - CEP: 62540-000 – Amontada-CE",,,,,
ANTONINA DO NORTE,Prefeitura,Karina Araujo,(88) 99344-3507,direito.karinaaraujo@gmail.com,https://antoninadonorte.ce.gov.br/,"R. João Batista Arrais, 08 - Centro, Antonina do Norte/CE",,,,,
APUIARES,Prefeitura,Carlos Cesar dos Santos M.,(85) 99263-8824,gabinete@apuiares.ce.gov.br,https://www.apuiares.ce.gov.br/,"João Honório de Freitas, s/n - Centro - 62.630-000 - Apuiarés/CE",,,,,
AQUIRAZ,Prefeitura,Ednardo Castelo Branco Brasileiro,(85) 4062-8090 RAM 9188,ouvidoria@aquiraz.ce.gov.br,https://www.aquiraz.ce.gov.br/,"Rua da Integração, s/n - Centro - Aquiraz/CE",,,,,
ARACATI,Prefeitura,Michelle dos Santos Freires,,ouvidoriageral@aracati.ce.gov.br,https://aracati.ce.gov.br/,"Prédio anexo à SEFIN - Rua Santos Dumont, 1146 - Farias Brito - Aracati/CE",,Michele,,,
ARACOIABA,Prefeitura,Odelidia Figueiredo de Brito,(85) 99775-9145,ouvidoriaaracoiaba@gmail.com,https://aracoiaba.ce.gov.br/,"Casa do Cidadao, Av. Santos Dumont, s/n - Centro - Aracoiaba/CE",,,,,
ARARENDÁ,Prefeitura,PREFEITURA,(88) 3633-1188 | (88) 99249-9539,ouvidoria@ararenda.ce.gov.br,https://www.ararenda.ce.gov.br/,"Rua Henrique Soares, 477, Centro - Ararendá/CE",,,,,
ARARIPE,Prefeitura,Antonio Eudro de Oliveira,(88) 9.9406-0146,ouvidoria@araripe.ce.gov.br,https://www.araripe.ce.gov.br/,,,,,,
ARATUBA,Prefeitura,PREFEITURA,(85) 3329-1444,pmagabinete02@gmail.com,https://www.aratuba.ce.gov.br/,"Rua Júlio Pereira, 304 - Centro - CEP: 62.762-000 - Aratuba/CE",,,,,
ARNEIROZ,Prefeitura,João André Feitosa Neto,(88) 3419-1020,ouvidoria@arneiroz.ce.gov.br,https://www.arneiroz.ce.gov.br/,"Praça Joaquim Felipe, 15, Centro - Arneiroz/CE",,,,,
ASSARÉ,Prefeitura,Paulo Anderson Sefarim de B.,(88) 99656-1118,ouvidoriamunassare@gmail.com,https://assare.ce.gov.br/,"Rua Doutor Paiva, 415 - Centro - Assaré\CE",,,,,
AURORA,Prefeitura,Cintia Gregorio dos Santos,(85) 99684-1509,ouvidoria@aurora.ce.gov.br,https://aurora.ce.gov.br/,"Av. Antônio Ricardo, Nº 43 - Centro - CEP: 63.360-000 – Aurora/CE",,,,,
BAIXIO,Prefeitura,PREFEITURA,(88) 9 9631-4729,ouvidoria@baixio.ce.gov.br,https://www.baixio.ce.gov.br/,"Praça dos Três Poderes, Centro Adm. Cícero Henrique Brasileiro, S/N - Centro - CEP:63320-000",,,,,
BANABUIU,Prefeitura,Francisco Ferreira do N. N.,(88) 9.9903-1442,ouvidoria@banabuiu.ce.gov.br,https://www.banabuiu.ce.gov.br/,"RUA JOAQUIM NOBRE DE OLIVEIRA, Nº 171",,,,,
BARBALHA,Prefeitura,PREFEITURA, (88) 3532-2459 | (88) 99455-1031,ouvidoria@barbalha.ce.gov.br (esse não recebeu o e-mail),https://barbalha.ce.gov.br/,"Av. Domingos Sampaio Miranda, nº 715, Buriti, CEP: 63.092-394, Barbalha/CE",,,,,
BARREIRA,Prefeitura,Bruna Monte Torres Teixeira,(85) 99254-4485,ouvidoria.pmb.ce@gmail.com,https://www.barreira.ce.gov.br/,"Sede da Secretaria de Saúde do Município, Rua Maria Maia, s/n, Centro, Barreira/CE",8h-16h,José Hédio Rodrigues Torres Filho,(85) 99438-2293,ouvidoriageralbarreira@gmail.com,"Rua Lúcio Tôrres, s/n - Centro - Barreira/CE"
BARRO,Prefeitura,Jader Fernandes de Melo,(88) 99632-0398,jadermelo224@gmail.com,https://www.barro.ce.gov.br/,"Rua Firmino Tavares, 246, Centro - Barro/CE",7h30-13h,Jader Fernandes de Melo,(88) 99632-0398,jadermelo224@gmail.com,"Rua Firmino Tavares, 246, Centro - Barro/CE"
BARROQUINHA,Prefeitura,PREFEITURA,(88) 3623-1137,,https://barroquinha.ce.gov.br/,,,,,,
BATURITÉ,Prefeitura,Emmanuel Jefferson K.C.B.M,(85) 99194-8477,ouvidoria@baturite.ce.gov.br,https://www.baturite.ce.gov.br/,"Prefeitura de Baturité, Praça da Matriz, s/n - Palácio Entre Rios",,,,,
BEBERIBE,Prefeitura,Francisco Jadson Bernando Martins,(85) 99794-5040,ouvidoria@beberibe.ce.gov.br,https://www.beberibe.ce.gov.br/,"Rua J J Dourado, 349 - Centro Administrastivo - AP 01 - Beberibe/CE",,,,,
BELA CRUZ,Prefeitura,Raimundo Ivan Moreira,(88) 9.9615-6583,ouvidoria@belacruz.ce.gov.br,https://www.belacruz.ce.gov.br/,"RUA 7 DE SETEMBRO, Nº 34 CENTRO, CEP: 62570-000",,,,,
BOA VIAGEM,Prefeitura,Maria Cristiane Andre de Sales,(88) 988690116,ouvidoria@boaviagem.ce.gov.br,https://www.boaviagem.ce.gov.br/,PREFEITURA MUNICIPAL DE BOA VIAGEM,,,,,
BREJO SANTO,Prefeitura,PREFEITURA,"(88) 3531-1042  Ramal 215
",ouvidoria@brejosanto.ce.gov.br,https://www.brejosanto.ce.gov.br/,"Rua Manoel Inácio Bezerra, 192 - Centro - Brejo Santo/CE",8h-17h,MARCOS ANTONIO NOGUEIRA,(88) 98162-4323,ouvidoriabs@ce.gov.br,
CAMOCIM,Prefeitura,Kelton Ribeiro do Nascimento,88992926121,ribeiro.kelton@gmail.com,https://camocim.ce.gov.br/,,,,,,
CAMPOS SALES,Prefeitura,Sem nome de ouvidor(a),(88) 3533-1801,ouvidoria@camposales.ce.gov.br,https://www.campossales.ce.gov.br/,,,,,,
CANINDÉ,Prefeitura,Edilson Ximenes,85999640757,edilson-ximenes@hotmail.com,https://www.caninde.ce.gov.br/,Largo Xavier de Medeiros s/n Bairro - Imaculada Conceição,,,,,
CAPISTRANO,Prefeitura,Raimundo Araujo Sousa,,ouvidoria@capistrano.ce.gov.br,https://www.capistrano.ce.gov.br/,"Praça: Major José Estelita de Aguiar, S/N - Centro - CEP: 62.748-000 – Capistrano/Ceará",,,,,
CARIDADE,Prefeitura,PREFEITURA,(85) 3324-1293,,https://www.caridade.ce.gov.br/,,,,,,
CARIRÉ,Prefeitura,Maria Cesar Martins Silva,(88) 9.8117-0152,csinharainha@hotmail.com,https://www.carire.ce.gov.br/,"Praca Elísio Aguiar, 141 - Centro - CEP: 62.184-000 - Cariré\CE",,,,,
CARIRIAÇU,Prefeitura,Aline Alencar Bezerra, (88) 3547-1122 | 3547-1159,ouvidoria@caririacu.ce.gov.br,https://www.caririacu.ce.gov.br/,"Prefeitura Municipal de Caririaçu, s/n, - Paraíso - CEP: 63.220-000",8h-14h,Aline Alencar Bezerra,Não informado,ouvidoria@caririacu.ce.gov.br,"Prefeitura Municipal de Caririaçu, s/n, - Paraíso - CEP: 63.220-000"
CARIUS,Prefeitura,PREFEITURA,(88) 3514-1219 | (88) 99903-3364,ouvidoriacarius@gmail.com,https://carius.ce.gov.br/,"Rua Raul Nogueira, s/n, Centro - Cariús/CE",,,,,
CARNAUBAL,Prefeitura,PREFEITURA," (88) 3650-1111

",,https://www.carnaubal.ce.gov.br/,,,,,,
CASCAVEL,Prefeitura,Patricia Virgina da Costa,(85) 3334-2840,ouvidoria@cascavel.ce.gov.br,https://www.cascavel.ce.gov.br/,"Av. Chanceler Edson Queiroz, 2050",,,,,
CATARINA,Prefeitura,Raimundo Graciliano Chaves de Almeida,(88) 3556-1167,ouvidoria.pmcatarina@gmail.com,https://www.catarina.ce.gov.br/,Rua José Rodrigues Pereira Neto - 280 - Três Poderes - CEP: 63.595-000 - Catarina/CE,,,,,
CATUNDA,Prefeitura,Reginaldo Rosendo de Almeida,(88) 3686-1032,ouvidoria.municipal.catunda@gmail.com | prefeitura.catunda.ceara@gmail.com,https://catunda.ce.gov.br/,,,,,,
CAUCAIA,Prefeitura,Séphora Ediva dos Lima Barcelos Silva, (85) 3342-4410 | (85) 3342-8064,ouvidoriageral@caucaia.ce.gov.br,https://www.caucaia.ce.gov.br/,"Rua Francisco Sáles, 116 - Centro - Caucaia/CE",,,,,
CEDRO,Prefeitura,Thatyana Kayrone Marinheiro da Silva,(88) 99989-9314,ouvidoria@cedro.ce.gov.br,https://www.cedro.ce.gov.br/,"Sala da Ouvidoria - Rua Tabelião Raimundo dos Santos, s/n, Bairro de Fátima - Cedro/CE",,,,,
CHAVAL,Prefeitura,PREFEITURA,(88) 3625-1330,,https://chaval.ce.gov.br/,,,,,,
CHORÓ,Prefeitura,Lidia Maria Sousa de Lima,(88) 9.92845912,ouvidoriachoro20@gmail.com,https://www.choro.ce.gov.br/,"Rua Cel. João Paracampos, 1410 - Alto do Cruzeiro - CEP: 63950-000 - CHORO\CE",,,,,
CHOROZINHO,Prefeitura,PREFEITURA,(85) 3319-1163  ,ouvidoria@chorozinho.ce.gov.br,https://www.chorozinho.ce.gov.br/,"Av. Raimundo Simplício, s/n, Centro - Chorozinho/CE",,,,,
COREAÚ,Prefeitura,Francisco José Fontenele,(88) 3645-1344,ouvidoriapalmacoreau@hotmail.com,https://www.coreau.ce.gov.br/,Prefeitura Municipal de Coreaú,,,,,
CRATEÚS,Prefeitura,Francisco Elvys da Silva Rodrigues, (88) 3692-3315,ouvidoria@crateus.ce.gov.br,https://www.crateus.ce.gov.br/,"Galeria Gentil Cardoso, 20, 2º andar, Centro - Crateús/CE",7h30-13h20,Francisco Elvys da Silva Rodrigues, (88) 3692-3315,ouvidoria@crateus.ce.gov.br,"Galeria Gentil Cardoso, 20, 2º andar, Centro - Crateús/CE"
CRATO,Prefeitura,Maria Agueda Brito Leite Duarte,(88) 99733-0333 | (88) 3521-9600,ouvidoria@crato.ce.gov.br | controladoria@crato.ce.gov.br,https://crato.ce.gov.br/ | www.ouvidoria.crato.ce.gov.br ,"Palácio Alexandre Arraes Largo Júlio Saraiva, s/n - Centro - CEP: 63.1000-347 ",8h-17h,Maria Agueda Brito Leite Duarte,162,,
CROATÁ,Prefeitura,PREFEITURA,,,https://croata.ce.gov.br/,,,,,,
CRUZ,Prefeitura,Allison Arante Silveira,(88) 99259-3006,ouvidoria@cruz.ce.gov.br,https://cruz.ce.gov.br/,"Praça dos 03 Poderes, SN Aningas - Cruz/CE",,,,,
DEPUTADO IRAPUAN PINHEIRO,Prefeitura,Josefa de Oliveira,(88) 9.81258271,ouvidoriacontroladoria@gmail.com,https://www.irapuanpinheiro.ce.gov.br/,Avenida dos Três Poderes - Nº 75 - Centro - Dep. Irapuan Pinheiro-CE - CEP: 63.645-000,,,,,
ERERÉ,Prefeitura,PREFEITURA,(88) 8236-6634 ,,https://www.erere.ce.gov.br/,,,,,,
EUSÉBIO,Prefeitura,PREFEITURA,(85) 99201-3176 | (85) 3924-6780,ouvidoriaeusebio@gmail.com,http://eusebio.ce.gov.br/,,,,,,
FARIAS BRITO,Prefeitura,PREFEITURA,(88) 3544-1223 | (88) 3544-1193,,https://www.fariasbrito.ce.gov.br/,"Rua José Alves Pimentel, 87, Centro - Farias Brito/CE.",,,,,
FORQUILHA,Prefeitura,Jorge Urculino Martins,(88) 9.9450-0748,ouvidoria@forquilha.ce.gov.br,https://www.forquilha.ce.gov.br/acessoainformacao.php,Ouvidoria Geral do Município - Prefeitura Municipal de Forquilha,,,,,
FORTALEZA,Prefeitura,Lilia Fontele,85988890842,lilian.fontenele@cgm.fortaleza.ce.gov.br,https://www.fortaleza.ce.gov.br/,"Avenida Dom Luís, 807,11º andar MEIRELES 60160-230",,,,,
FORTIM,Prefeitura,Cintia Rodrigues da Silva,(88) 3413-1053,ouvidoria@fortim.ce.gov.br,https://www.fortim.ce.gov.br/,"Vila da Paz, 40, Bloco D - Fortim/CE",,,,,
FRECHEIRINHA,Prefeitura,José Augusto,88993539696,ouvidoria@frecheirinha.ce.gov.br,https://www.frecheirinha.ce.gov.br/,Centro Administrativo de Frecheirinha,,,,,
GENERAL SAMPAIO,Prefeitura,Bruno Cesar Barbosa Gama,(85) 3357-1088 | (85) 98818-9684,ouvidoria@generalsampaio.ce.gov.br,https://www.generalsampaio.ce.gov.br/,"Av. José Severino Filho, 257 - Sagrado Coração de Jesus - General Sampaio/CE",,,,,
GRAÇA,Prefeitura,PREFEITURA,(88) 3656-1255,ouvidoria@graca.ce.gov.br,https://www.graca.ce.gov.br/,,,,,,
GRANJA,Prefeitura,David Pereira Rocha,(88) 3624-1155 -Ram 213,ouvidoriagranja@hotmail.com,https://www.granja.ce.gov.br/,"Praça da Matriz, S/N",,,,,
GRANJEIRO,Prefeitura,Railla Naiane de Alencar Menezes,(88) 99324-4871,ouvidoria@granjeiro.ce.gov.br,https://www.granjeiro.ce.gov.br/,"Rua David Granjeiro, 104 - Centro - Granjeiro/CE",,,,,
GROAIRAS,Prefeitura,PREFEITURA,,,https://www.groairas.ce.gov.br/site,,,,,,
GUAIUBA,Prefeitura,José Telmo Lacerda Diogenes,(85) 98884-3792 | (85) 99265-8924,guaiuba.ouvidora@gmail.com | gabinete@guaiuba.ce.gov.br,https://www.guaiuba.ce.gov.br/,"Rua Pedro Augusto, 53 - Centro - CEP: 61.890-000 - Guaiuba/CE",,,,,
GUARACIABA DO NORTE,Prefeitura,PREFEITURA,(88) 3652.2150 ,,https://www.guaraciabadonorte.ce.gov.br/,,,,,,
GUARAMIRANGA,Prefeitura,Francisco Cesarllan de Oliveira Gomes,(85) 99798-9815 | (85) 99260-6846,ouvidoria@guaramiranga.ce.gov.br,https://www.guaramiranga.ce.gov.br/,"Rua Joaquim Alves Nogueira, 409 - Centro",,,,,
HIDROLÂNDIA,Prefeitura,João Paulo Alves de Souza,(88) 3638-1305,controladoriaeouvidoria.hidro.ce@outlook.com,https://www.hidrolandia.ce.gov.br/,RUA LUIZ CAMELO SOBRINHO,,,,,
HORIZONTE,Prefeitura,PREFEITURA,(85) 3336-6078 | 85 987610270,ouvidoria@horizonte.ce.gov.br,https://www.horizonte.ce.gov.br/,"Rua Antônio Agostinho da Silva, 27 - Centro - Horizonte/CE",,,,,
IBARETAMA,Prefeitura,PREFEITURA,,,https://www.ibaretama.ce.gov.br/,,,,,,
IBIAPINA,Prefeitura,Myriam Matias da Silva,(88) 9.8167-7285,ouvidoria@ibiapina.ce.gov.br,https://www.ibiapina.ce.gov.br/,"Rua Deputado Fernando Melo, S/N - CENTRO - CEP: 62360-000 - IBIAPINA\CE",,,,,
IBICUITINGA,Prefeitura,José Wilker Darly da Silva Goes,(88)9.9425-7091,ouvidoria@ibicuitinga.ce.gov.br,https://www.ibicuitinga.ce.gov.br/,"Rua Edval Maia da Silva, 16 - Centro - Ibicuitinga/CE",,,,,
ICAPUÍ,Prefeitura,Marcos Andre da Costa Soares,3432-1483,ouvidoria@icapui.ce.gov.br,https://www.icapui.ce.gov.br/,"R. Antonio Ciriaco, Icapuí - CE CEP - 62.810-000",,,,,
ICÓ,Prefeitura,Maria das Graças Ferreira Vieira,(88) 3561-1508,ouvidoria@ico.ce.gov.br,https://www.ico.ce.gov.br/,"Rua Ilidio Sampaio, 2131 - Centro - CEP: 63.430-000 - Icó\CE",,,,,
IGUATU,Prefeitura,PREFEITURA,(88) 3581-6563 ,ouvidoria@iguatu.ce.gov.br,https://www.iguatu.ce.gov.br/,R. Dr. João Pessoa - Centro - Iguatu/CE,,,,,
INDEPENDÊNCIA,Prefeitura,Layanna Maria Coelho Oliveira Magalhães,(88) 3675-2213,prefeituradeindependencia2017@outlook.com,https://www.independencia.ce.gov.br/,"Rua Cruzeiro, 244 - Centro - CEP: 63.640-000 - Independência/CE",,,,,
IPAPORANGA,Prefeitura,Regiane Bezerra de Oliveira,(88) 99944-2403,ouvidoria@ipaporanga.ce.gov.br,https://www.ipaporanga.ce.gov.br/,"Rua Franklin José Vieira , 91, Centro - CEP: 62.215-000 - Ipaporanga/CE",7h-13h,Rosane Alves Eduardo,(88) 99944-2403,ogmipaporanga@gmail.com,"Rua Franklin José Vieira , 91, Centro - CEP: 62.215-000 - Ipaporanga/CE"
IPAUMIRIM,Prefeitura,Juciclea Gouveia Correia,,,https://www.ipaumirim.ce.gov.br/,,,,,,
IPU,Prefeitura,PREFEITURA, (88) 3683-2021   ,,https://ipu.ce.gov.br/,,,,,,
IPUEIRAS,Prefeitura,Caio Cesar Linhares Ferreira,,ouvidoria@ipueiras.ce.gov.br,https://www.ipueiras.ce.gov.br/,"Parque da Cidade Jose Costa Matos, 01, Centro",,,,,
IRACEMA,Prefeitura,Savio Nero Medeiros Magalhães,(88) 3428-1462,ouvidoria.iracema.ce@gmail.com,https://www.iracema.ce.gov.br/,Rua Delta Holanda - Nº 19 - Centro - Cep: 62.980-000 - Iracema - CE,,,,,
IRAUÇUBA,Prefeitura,Renata Mendes Ramos,(88) 99928-7094 | (88) 99617-1794,ouvidoria@iraucuba.ce.gov.br,https://www.iraucuba.ce.gov.br/,"Av. Paulo Bastos, 14000 - Centro - CEP: 62620-000 - Irauçuba/CE",,,,,
ITAIÇABA,Prefeitura,Fracisca Edvanda Reinaldo da Silva,(88) 3410-1112,ouvidoria@itaicaba.ce.gov.br,https://www.itaicaba.ce.gov.br/,Prefeitura Municipal de Itaiçaba,,,,,
ITAITINGA,Prefeitura,Silvania Ferreira Cartaxo,0800 101 11 70,ouvidoria@itaitinga.ce.gov.br,https://www.itaitinga.ce.gov.br/,"Rua Manoel de Sousa, 215 - Centro - Itaitinga/CE",,,,,
ITAPAJÉ,Prefeitura,Raiane Pereira Costa,(85) 3346-2261,ouvidoria@itapaje.ce.gov.br,https://www.itapaje.ce.gov.br/,"Av. Antônio Pereira de Melo, 353 - Itapajé/CE",,,,,
ITAPIPOCA,Prefeitura,Altonia Azevedo Rogério Primo,(88) 99626-2400 | (88) 3631-5950,altoniaazevedo10@gmail.com | faleconosco@itapipoca.ce.gov.br,https://www.itapipoca.ce.gov.br/,Av. Anastácio Braga n 195 - Centro Itapipoca/CE,,,,,
ITAPIUNA,Prefeitura,Aurelio de Oliveira Souza,(88) 3431-1210 | (88) 99464-3378,gabinete@itapiuna.ce.gov.br,https://www.itapiuna.ce.gov.br/,"Av. São Cristovão, 15 - Centro - Itapiúna/CE",,,,,
ITAREMA,Prefeitura,Kaline Mariele Santana Monteiro,(88) 9.8885-5179,ouvidoria@itarema.ce.gov.br,https://www.itarema.ce.gov.br/,"Praça Nossa Senhora de Fátima, N° 48, Centro, Itarema-CE | CEP: 62.590-000",,,,,
ITATIRA,Prefeitura,Sergio Paulo de Carvalho Prado,(88) 3436-1044,prefeitura_itatira@hotmail.com,https://www.itatira.ce.gov.br/,"RUA PADRE JOSÉ LAURINDO nº 1249 PAÇO MUNICIPAL, , ITATIRA",,,,,
JAGUARETAMA,Prefeitura,Raimunete Oliveira Chaves,(88) 9.8133.6960,ouvidoria@jaguaretama.ce.gov.br,https://www.jaguaretama.ce.gov.br/,Rua Tristão Gonçalves - Nº 185 - Centro - Cep : 63.480-000 - Jaguaretama - CE,,,,,
JAGUARIBARA,Prefeitura,PREFEITURA,(88) 3568-4534,,https://www.jaguaribara.ce.gov.br/,,,,,,
JAGUARIBE,Prefeitura,Anna Susy Saldanha Freire,(88) 9.3300-2638,ouvidoria@jaguaribe.ce.gov.br,https://www.jaguaribe.ce.gov.br/,"Rua Maria Nizinha Campelo, 341",,,,,
JAGUARUANA,Prefeitura,Marcos Paulo Mendonça Soares,(88) 3418-1288,ouvidoria@jaguaruana.ce.gov.br,https://www.jaguaruana.ce.gov.br/,"Praça: Adolfo Francisco da Rocha, Nº 404 - Centro - CEP: 62.823-000 - Jaguaruana/CE",,,,,
JARDIM,Prefeitura,Thamires Clemente Tenorio,(88) 3481-7445,ouvidoria@jardim.ce.gov.br,https://www.jardim.ce.gov.br/,"Rua Leonel Alencar, 370, Centro, Jardim/CE",,,,,
JATI,Prefeitura,PREFEITURA,(88)98868-0810,ouvidoriajati@gmail.com,https://jati.ce.gov.br/,,,,,,
JIJOCA DE JERICOACOARA,Prefeitura,José Gilson Vasconcelo,(88) 3669-1180,ouvidoria@jijocadejericoacoara.ce.gov.br,https://www.jijocadejericoacoara.ce.gov.br/,"AV. Manoel Marques, Centro s/n",,,,,
JUAZEIRO DO NORTE,Prefeitura,Ivan Figueiroa Pontes,(88) 98102-5136 | (88) 3199-0464,ouvidoria@juazeiro.ce.gov.br,https://juazeirodonorte.ce.gov.br/,"Rua Interventor Francisco Erivano Cruz, Nº 120 - Centro - CEP: 63.010-015",,,,,
JUCÁS,Prefeitura,PREFEITURA,(88) 3517-1410 ,,https://jucas.ce.gov.br/,,,,,,
LAVRAS DA MANGABEIRA,Prefeitura,Samuel Pinheiro Sobral,(88) 99932-1655 | (88) 99719-1427,ouvidoria.lavrasce@gmail.com,https://www.lavrasdamangabeira.ce.gov.br/,Elisbão de Almeida Crispim,,,,,
LIMOEIRO DO NORTE,Prefeitura,Raimundo Eugenio de Menezes Castro,(88) 2142 1900,ouvidoria@limoeirodonorte.ce.gov.br,https://www.limoeirodonorte.ce.gov.br/,"Rua Cel. Antonio Joaquim, 2121 - Centro - Limoeiro do Norte",,,,,
MADALENA,Prefeitura,PREFEITURA, (88) 99461-5404 ,,https://www.madalena.ce.gov.br/acessoainformacao.php,,,,,,
MARACANAÚ,Prefeitura,Janaina de Oliveira Albuquerque,(85) 3521-5850,ouvidorageral@maracanau.ce.gov.br,https://www.maracanau.ce.gov.br/,"Rua Edson Queiroz, 270 - Centro - Maracanaú/CE",8h-16h (seg a qui) / 8h-14h (sex),Janaina de Oliveira Albuquerque,(85) 3521-5891,ouvidorageral@maracanau.ce.gov.br,"Rua Edson Queiroz, 270 - Centro - Maracanaú/CE"
MARANGUAPE,Prefeitura,Cristiana Miranda,(85) 97400-7236,gabinete@maranguape.ce.gov.br,https://maranguape.ce.gov.br/,,,,,,
MARCO,Prefeitura,Taynan Fernandes da Silva,(88) 3664-1415,ouvidoria@marco.ce.gov.br,https://marco.ce.gov.br/,"Av. Prefeito Guido Osterno, S/N - Centro - CEP: 62.560-000",,,,,
MARTINÓPOLE,Prefeitura,PREFEITURA, (88) 98876-5101 ,,https://www.martinopole.ce.gov.br/,,,,,,
MASSAPÊ,Prefeitura,Suely Andrade de Lima,(88) 3643-1499,ouvidoria@massape.ce.gov.br,https://www.massape.ce.gov.br/,"RUA MAJOR JOSÉ PAULINO, Nº 191",,,,,
MAURITI,Prefeitura,Maria Aparecida Bernardo da Silva,(88) 99632-8227,ouvidoria@mauriti.ce.gov.br,https://www.mauriti.ce.gov.br/,"Av. Senhor Martins de Morais, s/n - Bela Vista - CEP: 63210-000 - Mauriti/CE",8h-12h / 13h-16h,Isabel Karolayne,(88) 99632-8227,ouvidoria@mauriti.ce.gov.br,"Av. Senhor Martins de Morais, s/n - Bela Vista - CEP: 63210-000 - Mauriti/CE"
MERUOCA,Prefeitura,Francisca Fabia de Oliveira Santos,(88) 3649-1136,ouvidoria.meruoca@meruoca.ce.gov.br,https://www.meruoca.ce.gov.br/,"Avenida. Pedro Sampaio, Nº 385 - Divino Salvador - CEP: 62.130-000 - Meruoca/CE",,,,,
MILAGRES,Prefeitura,Anna Aponisia Felix dos Santos Ribeiro,(88) 35531255,ouvidoria@milagres.ce.gov.br,https://www.milagres.ce.gov.br/,"Rua Helena Mendonça de Figueiredo, 200 - Prefeitura Municipal de Milagres, Centro - Milagres/CE",7h30-12h / 13h30-17h,Anna Aponisia Felix dos Santos Ribeiro,Não tem,ouvidoria@milagres.ce.gov.br,
MILHÃ,Prefeitura,Alex Sandro Costa Dias,(88) 9.9712-5612,ouvidoria.milha.ce@gmail.com,https://www.milha.ce.gov.br/,"Av. Pedro José de Oliveira, Nº 406 - Centro - CEP: 63635-000 - Milhã/CE",,,,,
MIRAÍMA,Prefeitura,Antonia Maria Alves Pinheiro Pinto,(88) 36391167,ouvidoria@miraima.ce.gov.br,https://www.miraima.ce.gov.br/,ESPLANADA DA ESTAÇÃO,,,,,
MISSÃO VELHA,Prefeitura,Regilânio Macedo,(88) 3542-1691 ,controladoriaeouvidoria@missaovelha.ce.gov.br | ouvidoria@missaovelha.ce.gov.br,https://missaovelha.ce.gov.br/,"Paço Municipal Sebastião Pereira Cruz
Rua José leite landim Júnior, 64 Centro - Missão Velha/CE",,,,,
MOMBAÇA,Prefeitura,Francimario Ferreira de Oliveira,(88) 9.88589996,ouvidoria@mombaca.ce.gov.br,https://www.mombaca.ce.gov.br/,RUA DONA ANÉSIA CASTELO 01 - ALTOS,,,,,
MONSENHOR TABOSA,Prefeitura,Lowrany de Melo Sousa Rodrigues,(88) 3696-1117,ouvidoriamonsenhortabosa@gmail.com,https://www.monsenhortabosa.ce.gov.br/,"Praça 07 de Setembro, 15 - Centro - Monsenhor Tabosa/CE",,,,,
MORADA NOVA,Prefeitura,PREFEITURA,(88) 3422-1381,,https://www.moradanova.ce.gov.br/,,,,,,
MORAÚJO,Prefeitura,PREFEITURA,(88) 3642-1145,,https://www.moraujo.ce.gov.br/,,,,,,
MORRINHOS,Prefeitura,Francisco Odinei Vasconcelos Barbosa,(88)36651130 | (88) 9603-6511,ouvidoria@morrinhos.ce.gov.br,https://morrinhos.ce.gov.br/,"Rua Joaquim Coriolano Rocha, Nº 350B, Centro",,,,,
MUCAMBO,Prefeitura,PREFEITURA,(88) 3654-1133,,https://mucambo.ce.gov.br/,,,,,,
MULUNGU,Prefeitura,Maria Erivania Lima Alexandre,(85) 99414-7041 | (85) 3328-1130,ouvidoria@mulungu.ce.gov.br,https://www.mulungu.ce.gov.br/,"Rua Cel. Justino Café, 136 | Ouvidoria Geral do Município",,,,,
NOVA OLINDA,Prefeitura,PREFEITURA,(88) 3546-1489 | (88) 3546-1410,ouvidoria@novaolinda.ce.gov.br,https://novaolinda.ce.gov.br/,"Rua Pedro Antônio, s/n - Nova Olinda/CE",,,,,
NOVA RUSSAS,Prefeitura,Juliana Lopes Vale,(88) 3672-1920,ouvidoria@novarussas.ce.gov.br,https://www.novarussas.ce.gov.br/,"Rua: Padre Francisco Rosa, Nº 1388 - Centro",,,,,
NOVO ORIENTE,Prefeitura,Antonia Raiane Costa Oliveira,(88) 3629-1712,ouvidoria@novooriente.ce.gov.br,https://www.novooriente.ce.gov.br/,"Rua Deocleciano Aragão, 15 - Centro - CEP: 63.740-000 - Novo Oriente/CE",7h-16h,Antonia Raiane Costa Oliveira,(88) 99673-3065,ouvidoria@novooriente.ce.gov.br,"Rua Deocleciano Aragão, 15 - Centro - CEP: 63.740-000 - Novo Oriente/CE"
OCARA,Prefeitura,Ronyeberson Mendes Galvão,(85) 99917-8541,ouvidoria@ocara.ce.gov.br,https://www.ocara.ce.gov.br/,Av. Coronel João Felipe,,,,,
ORÓS,Prefeitura,Lohanne Soares da Silva,(88) 3584-1188,ouvidoria.gmo@oros.ce.gov.br,https://oros.ce.gov.br/,"Praça Anastácio Maia, 40 - Centro - CEP: 63520-000 - Orós\CE",,,,,
PACAJUS,Prefeitura,Walisson Rodrigues Pereira, (85) 9234-4763 | (85) 98109-3717,controladorgeral@pacajus.ce.gov.br,https://www.pacajus.ce.gov.br/,"Rua Guarany, 600, altos - Centro - Pacajus/CE",,,,,
PACATUBA,Prefeitura,Emerson Fernandes dos Santos Junior,(85) 99685-9347,ouvidoria@pacatuba.ce.gov.br,https://pacatuba.ce.gov.br/,"Rua Josué Mateus Figueiredo, 293 - Centro - Pacatuba/CE",,,,,
PACOTI,Prefeitura,José Anilson Alves de Sousa,(85) 3325-1413,ouvidoria@pacoti.ce.gov.br,https://www.pacoti.ce.gov.br/,"Rua Praça Coronel José Cícero Sampaio, Nº 663 - Centro - CEP: 62.770-000 - Pacoti/CE",,,,,
PACUJÁ,Prefeitura,Nathan Paiva Tudes,(88) 9.92837653,ouvidoria@pacuja.ce.gov.br,https://www.pacuja.ce.gov.br/,"Rua: 22 De Setembro, Nº 325 - Centro - CEP:62.180-970 - Pacuja/CE",,,,,
PALHANO,Prefeitura,Francisca Lima Beserra,(88) 34151050,ouvidoria@palhano.ce.gov.br,https://www.palhano.ce.gov.br/,Prefeitura Municipal de Palhano,,,,,
PALMÁCIA,Prefeitura,Raul Saymon Calixto do Nascimento,,pm@palmacia.ce.gov.br,https://www.palmacia.ce.gov.br/,,,,,,
PARACURU,Prefeitura,Daniel Felix da Silva,(85) 98126-4203,ouvidoria@paracuru.ce.gov.br,https://www.paracuru.ce.gov.br/,"Rua Cel. Meireles, 07 - Centro - Paracuru/CE",,,,,
PARAIPABA,Prefeitura,Fernanda Keyla Barroso de Sousa,(85) 98107-2681,ouvidoria@paraipaba.ce.gov.br,https://www.paraipaba.ce.gov.br/,"Rua Joaquim Braga, s/n - Centro - CEP:62.685-000 - Paraipaba/CE",,,,,
PARAMBU,Prefeitura,PREFEITURA,(88) 3448-1780 | (88) 99840-8211,ouvidoria@parambu.ce.gov.br,https://www.parambu.ce.gov.br/,,,,,,
PARAMOTI,Prefeitura,Maria Cydalia Barbosa Gama,(85) 9.9262-6315,ouvidoria@paramoti.ce.gov.br,https://www.paramoti.ce.gov.br/,"Rua: Santa Ana, Nº 64 - Centro - CEP: 62.736-000 - Paramoti/CE",,,,,
PEDRA BRANCA,Prefeitura,PREFEITURA, (88)3515-2444 ,,https://www.pedrabranca.ce.gov.br/,,,,,,
PENAFORTE,Prefeitura,PREFEITURA, (88) 98819-4981   ,controladoriageralpmp@gmail.com,https://penaforte.ce.gov.br/,,,,,,
PENTECOSTE,Prefeitura,Paulo Henrique Borges do Vale,,,https://www.pentecoste.ce.gov.br/,,,,,,
PEREIRO,Prefeitura,Cleber Vagner de Almeida,(88) 9.9930-7625,ouvidoria@pereiro.ce.gov.br,https://www.pereiro.ce.gov.br/,"Rua Marta Silveira Maciel, 04, Centro - Pereiro-CE",,,,,
PINDORETAMA,Prefeitura,Luciano José Araujo,(85) 98405-6396,ouvidoria@pindoretama.ce.gov.br,https://pindoretama.ce.gov.br/,,,,,,
PIQUET CARNEIRO,Prefeitura,Emanuelle Vieira Pinheiro,(88) 3516-1800: (88).996670?,ouvidoria@piquetcarneiro.ce.gov.br,https://www.piquetcarneiro.ce.gov.br/,Praça Mariano Aires S/N - Centro - CEP: 63.605-000 - Piquet Carneiro\CE,,,,,
PIRES FERREIRA,Prefeitura,PREFEITURA,(88) 3651-1081  ,,https://www.piresferreira.ce.gov.br/,,,,,,
PORANGA,Prefeitura,Clemilda Pereira da Silva,(88) 3658-1588,ouvidoria@poranga.ce.gov.br,https://www.poranga.ce.gov.br/,"Av. Doutor Epitácio de Pinho, Anexo, s/n - Eufrasino Neto",8h-12h / 13h-17h,Antônio Valdir Gomes Lima,(88) 99669-4896,valdirterranova@gmail.com,"Av. Doutor Epitácio de Pinho, Anexo, s/n - Eufrasino Neto"
PORTEIRAS,Prefeitura,Rosimar,(88) 3557-1254,gapre@porteiras.ce.gov.br,https://porteiras.ce.gov.br/,,,,,,
POTENGI,Prefeitura,PREFEITURA, (88) 3538-1562 ,gabinete@potengi.ce.gov.br,https://www.potengi.ce.gov.br/,,,,,,
POTIRETAMA,Prefeitura,PREFEITURA,(88)9.9613-2273,,https://www.potiretama.ce.gov.br/,,,,,,
QUITERIANOPÓLIS,Prefeitura,Lucas Pereira de Lacerda Cavalcante,(88) 3657-1064,gabinete@quiterianopolis.ce.gov.br,https://quiterianopolis.ce.gov.br/,"Av. Laurindo Gomes, s/n - Centro - CEP: 63650-000 - Quiterianópolis\CE",,,,,
QUIXADÁ,Prefeitura,Daniele de Castro Alves,,ouvidoria@quixada.ce.gov.br,https://quixada.ce.gov.br/,"Travessa Jorge Matias Lobo,, s/n,Quixadá, CE",,,,,
QUIXELÔ,Prefeitura,PREFEITURA,(88) 3579.1210 ,,https://www.quixelo.ce.gov.br/,,,,,,
QUIXERAMOMBIM,Prefeitura,Carlos Antonio Chaves Simão,Wpp - (88) 9 8808-5170,ouvidoria@quixeramobim.ce.gov.br,https://www.quixeramobim.ce.gov.br/,"Rua Dom Quintino, nº 72, Centro, Quixeramobim - Ceará",,,,,
QUIXERÉ,Prefeitura,Carla Simone Costa Melo,(85) 40425519,ouvidoria@quixere.ce.gov.br,https://www.quixere.ce.gov.br/,"Rua Padre Joaquim de Menezes, nº 1175, Centro",,,,,
REDENÇÃO,Prefeitura,Francisca Wilcilane Barreto Pinheiro,(85) 99985-4822 | (85) 99180-6553,ouvidoria@redencao.ce.gov.br,https://www.redencao.ce.gov.br/,"Rua Santos Dumont, s/n - Centro - Redenção/CE",7h30-11h30 / 13h-16h30,Francisca Wilcilane Barreto Pinheiro,(85) 99985-4822 | (85) 99180-6553,ouvidoria@redencao.ce.gov.br,"Rua Santos Dumont, s/n - Centro - Redenção/CE"
RERIUTABA,Prefeitura,PREFEITURA,(88) 3637-2052   ,,https://www.reriutaba.ce.gov.br/,,,,,,
RUSSAS,Prefeitura,José Almir da Silva Bernardo,3411.8401,ouvidoria@russas.ce.gov.br,https://russas.ce.gov.br/,"Av. Dom Lino, 831, Centro",,,,,
SABOEIRO,Prefeitura,PREFEITURA,,prefeitura@saboeiro.ce.gov.br,https://saboeiro.ce.gov.br/,,,,,,
SALITRE,Prefeitura,Carlos Antonio Lucio Alencar,(88) 35371220,ouvidoria@salitre.ce.gov.br,https://www.salitre.ce.gov.br/,"Sala da Ouvidoria, Praça São Francisco, S/N - Centro - Salitre/CE",,,,,
SANTA QUITÉRIA,Prefeitura,Bruna de Sousa Pereira,88997944185,ouvidoria@santaquiteria.ce.gov.br,https://www.santaquiteria.ce.gov.br/,"Rua: Professora Ernestina Catunda, Nº 50 - Piracicaba - CEP: 62.280-000 - Santa Quitéria/CE",,,,,
SANTANA DO ACARAÚ,Prefeitura,Francisco Igor de Sousa,Wpp - (88) 9 9744-5732,ouvidoria@santanadoacarau.ce.gov.br,https://www.santanadoacarau.ce.gov.br/,"Avenida São João, nº 75, Bairro Centro, Santana do Acaraú/CE, CEP: 62150-000",,,,,
SANTANA DO CARIRI,Prefeitura,PREFEITURA, (88) 3545-1175 | (88) 99688-0234,ouvidoriasantanadocariri@gmail.com,https://santanadocariri.ce.gov.br/,"Rua Doutor Plácido Cidade Nuvens, 387 - Centro -  Santana do Cariri/CE",,,,,
SÃO BENEDITO,Prefeitura,Maria Marcia Coelho Pereira,(88) 3626-1347,ouvidoria@saobenedito.ce.gov.br,https://www.saobenedito.ce.gov.br/,Sede da Prefeitura Municipal de São Benedito,,,,,
SÃO GONÇALO DO AMARANTE,Prefeitura,Erinaldo Moraes Soares,85 4042-0753,ouvidoria@saogoncalodoamarante.ce.gov.br,https://www.saogoncalodoamarante.ce.gov.br/,"R. Ivete Alcântara, 120, Centro, 62.670-000, São Gonçalo do Amarante, CE",,,,,
SÃO JOÃO DO JAGUARIBE,Prefeitura,Cirilo Barreira Gomes,Wpp - (88) 9 8119-5326,,https://www.saojoaodojaguaribe.ce.gov.br/,"Rua: Cônego Climerio Chaves, Nº 307 - Centro - CEP: 62.965-000 - São João Do Jaguaribe/CE",,,,,
SÃO LUIZ DO CURU,Prefeitura,Francisco Tome Oliveira,(85) 3355-1015,esic@saoluisdocuru.ce.gov.br,https://www.saoluisdocuru.ce.gov.br/,Prefeitura Municipal de São Luís do Curu,,,,,
SENADOR POMPEU,Prefeitura,Mayara Avles Bezerra,88999837083,ouvidoria@senadorpompeu.ce.gov.br,https://www.senadorpompeu.ce.gov.br/,"Rua: Segismundo Rodrigues, S/N - Centro - Nº 63.600-000 Senador Pompeu/CE",,,,,
SENADOR SÁ,Prefeitura,PREFEITURA,,,https://senadorsa.ce.gov.br/,,,,,,
SOBRAL,Prefeitura,PREFEITURA,(085) 3677-1100 ,,https://sobral.ce.gov.br/,,,,,,
SOLONÓPOLE,Prefeitura,Diego Pinheiro,88996249715,,https://www.solonopole.ce.gov.br/,"Rua Dr. Queiroz Lima, 330 - Centro - CEP: 63620-000 - Solonópole\CE",,,,,
TABULEIRO DO NORTE,Prefeitura,Raelly Magalhães Lima,WPP -  (88) 9 9267-0223,ouvidoria@tabuleirodonorte.ce.gov.br,https://www.tabuleirodonorte.ce.gov.br/,"Rua Padre Clicério, 4605 - São Francisco - CEP: 62960-000 - Tabuleiro do Norte\CE",,,,,
TAMBORIL,Prefeitura,Karina Kelly Veras Francilino Araujo,(88) 99226-6608,ouvidoriatamboril@gmail.com,https://www.tamboril.ce.gov.br/,"Rua: Germiniano Rodrigues de Farias, s/n - São Pedro - CEP: 63.750-000 - Tamboril/CE",,,,,
TARRAFAS,Prefeitura,PREFEITURA,(88) 99278-8945,ouvidoria@tarrafas.ce.gov.br,https://tarrafas.ce.gov.br/,"Av. Maria Luiza Leite Santos, s/n - Bulandeira - Tarrafas/CE",,,,,
TAUÁ,Prefeitura,Harmodia Cavalcanti Gonçalves,(85) 99913-9545 | (88) 99807-2540,ouvidoriatauaouvidoria@gmail.com,https://www.taua.ce.gov.br/,"Rua Setúbal Da paixão, 06 Palácio Quinamuiu centro Administrativo José Fernandes castelo.",,,,,
TEJUÇUOCA,Prefeitura,Elk Maria Veras de Brito,(85) 9.92269952,ouvidoriapmtj@gmail.com,https://www.tejucuoca.ce.gov.br/,"Mamede Rodrigues Teixeira, nº 489. Centro. Praça Matriz. Tejuçuoca/CE",,,,,
TIANGUÁ,Prefeitura,Carlos Alexandre Aguiar de Vasconcelos,(88) 3671-2288/3671-2888,ouvidoria@tiangua.ce.gov.br,https://www.tiangua.ce.gov.br/,"Avenida Moisés Moita, nº 785",,,,,
TRAIRI,Prefeitura,Maria Gorete Souto Pinto,(85) 9.96018313,ouvidoriatrairi2021@gmail.com,https://www.trairi.ce.gov.br/,Av. Miguel Pinto Ferreira nº 356,,,,,
TURURU,Prefeitura,Andreza Sales Pereira,(85) 3358-1073,ouvidoria@tururu.ce.gov.br,https://www.tururu.ce.gov.br/,"Rua Francisco Sales, 132 - Centro - CEP: 62655-000 - Tururu\CE",,,,,
UBAJARA,Prefeitura,PREFEITURA,,,https://www.ubajara.ce.gov.br/,,,,,,
UMARI,Prefeitura,Francisco Eduardo Ferreira de Araujo,(85)9.8982-8576,ouvidoriaumari@gmail.com,https://www.umari.ce.gov.br/,"Rua: 3 Agosto, Nº 200 - Centro - CEP: 63.310-000 - Umari/CE",,,,,
UMIRIM,Prefeitura,PREFEITURA,(85) 33641-211,,https://www.umirim.ce.gov.br/,,,,,,
URUBURETAMA,Prefeitura,Barbara Broges de Sousa,(85) 9.9133-5021,bbsbarbara000@gmail.com,https://www.uruburetama.ce.gov.br/,"PRAÇA SOARES BULCÃO, Nº 196 CENTRO, CEP: 62650-000",,,,,
URUOCA,Prefeitura,Beatriz Teixeira Silvino Fontenele,(88) 9.92559694,ouvidoria@uruoca.ce.gov.br,https://uruoca.ce.gov.br/,"Rua João Rodrigues, 173 - Centro - CEP: 62460-000 - Uruoca\CE",,,,,
VARJOTA,Prefeitura,Cloves Ximenes Feijão Filho,(88) 36391344,ouvidoria@varjota.ce.gov.br,https://www.varjota.ce.gov.br/,"Av. Pres. Castelo Branco, 1744 - Acampamento - CEP: 62265-000 - Varjota\CE",,,,,
VARZEA ALEGRE,Prefeitura,Andrea Fiuza Menezes,(88) 99367-5389 | (88) 99986-4766,ouvidoria@varzeaalegre.ce.gov.br,https://www.varzeaalegre.ce.gov.br/,"Rua Dep. Luiz Otacílio Correia,153, Centro. Várzea Alegre - CE",,,,,
VIÇOSA DO CEARÁ,Prefeitura,Maria Gerlane Santos Magalhães,(88) 36321816,ouvidoria@vicosa.ce.gov.br,https://www.vicosa.ce.gov.br/,"Avenida José Figueira, 615, Bairro São Francisco",,,,,
ACARAPE,Câmara,Antonia Angelina de Almeida,(85) 3373-1266,camaraacarape@hotmail.com,https://www.camaraacarape.ce.gov.br/,"Rua José Guilherme Costa, S/N - Centro - CEP: 62.785-000 – Acarape/CE",,,,,
ABAIARA,Câmara,CÂMARA,(88) 3558-1399,,https://camaraabaiara.ce.gov.br/,,,,,,
ACARAÚ,Câmara,Ana Claudia de Sousa,(88) 3661-1541,ouvidoria@cmacarau.ce.gov.br,https://cmacarau.ce.gov.br/,"Av. Capitão Diogo Lopes, Nº 53 - Centro - CEP: 62580-000 – Acaraú/CE",,,,,
ACOPIARA,Câmara,Otacilio Pereira da Silva Neto,(88) 98818-2248,otaciliopereira163@outlook.com,https://www.camaraacopiara.ce.gov.br/,"Avenida Paulino Félix, 557",,,,,
AIUABA,Câmara,Lucas Gomes de Sousa,(88)3524-1212,camaraaiuaba@gmail.com,https://cmaiuaba.ce.gov.br/,Câmara Municipal De Aiuaba,,,,,
ALCÂNTARAS,Câmara,Antonia de Cassia da Silva Maciel,(88)36401144,camaramunicipaldealcantaras@hotmail.com,https://camaraalcantaras.ce.gov.br/,"Rua Antonio Rocha Freire,S/N-Centro",,,,,
ALTANEIRA,Câmara,CÂMARA,8835481168,contato@altaneira.ce.leg.br,https://www.altaneira.ce.leg.br/,Câmara Municipal De Altaneira,,,,,
ALTO SANTO,Câmara,CÂMARA,(88) 3429-1260,,https://www.camaraaltosanto.ce.gov.br/,,,,,,
AMONTADA,Câmara,Sheila Samia Teixeira Alves,(88) 3636-1414,,https://camaraamontada.ce.gov.br/,Câmara Municipal de Amontada,,,,,
ANTONINA DO NORTE,Câmara,CÂMARA,,,https://cmantoninadonorte.ce.gov.br/,,,,,,
APUIARES,Câmara,Diego Barbosa de Sousa,85991561379,ouvidoriacamaraapuiares@gmail.com,https://www.camaraapuiares.ce.gov.br/,Câmara Municipal De Apuiarés,,,,,
AQUIRAZ,Câmara,CÂMARA,(85) 3361-0171,,https://cmaquiraz.ce.gov.br/,,,,,,
ARACATI,Câmara,CÂMARA,(88) 3421-1144,,https://www.cmaracati.ce.gov.br/,,,,,,
ARACOIABA,Câmara,José Herlano Guedes de Queiroz,(85)3337.1636,herlanoguedes@hotmail.com,https://www.camaraaracoiaba.ce.gov.br/,"Av. Da Independência, Nº 134 - Centro - CEP: 62.750-000 – Aracoiaba/CE",,,,,
ARARENDÁ,Câmara,Ellison Bezerra de Sousa,(88) 3633-1166,ouvidoria@hotmail.com,https://camaradeararenda.ce.gov.br/,Câmara Municipal De Ararendá,07h-12h,Raimundo Luis de Matos Melo,(88) 3633-1166,ouvidoria@hotmail.com,Câmara Municipal De Ararendá
ARARIPE,Câmara,CÂMARA,(88) 3530-1246,,https://www.cmararipe.ce.gov.br/,,,,,,
ARATUBA,Câmara,Marcia de Freitas Leitão, (85) 3329-1227,camara.aratuba@gmail.com,https://camaraaratuba.ce.gov.br/,"Edifício José de Freitas Filho | Rua: Coronel Augusto Cordeiro, Nº 539 - Centro - CEP 62.762-000 – A",,,,,
ARNEIROZ,Câmara,CÂMARA,(88) 3419 1111,,https://camaraarneiroz.ce.gov.br/,,,,,,
ASSARÉ,Câmara,CÂMARA,(88)3535-1346,,https://camaraassare.ce.gov.br/,,,,,,
AURORA,Câmara,Anna Vytória Gonçalves Landim,(88) 99949-6708 | (88) 3543-1217,ouvidoria@camaraaurora.ce.gov.br | ouvidoriaplaurora@gmail.com,https://cmaurora.ce.gov.br/,"Doutor Guedes Martins, s/n - Bairro Araçá - Aurora/CE",,,,,
BAIXIO,Câmara,CÂMARA,(88) 99707-4043,contato@camarabaixio.ce.gov.br | ouvidoria@camarabaixio.ce.gov.br,https://camarabaixio.ce.gov.br/,"Praça dos Três Poderes, Centro Adm. Cícero Henrique Brasileiro, S/N – Centro",,,,,
BANABUIU,Câmara,Francisca Samara Gomes da Silva,(88) 3426-1212,contatos@camarabanabuiu.ce.gov.br,https://camarabanabuiu.ce.gov.br/,"Rua: Raimundo Dias , Nº 38 - Centro - CEP: 63.960-000 – Banabuiú/CE",,,,,
BARBALHA,Câmara,CÂMARA,(88) 3532-3316 | (88) 3454-5588,ouvidoria@hotmail.com,https://www.camaradebarbalha.ce.gov.br/,,,,,,
BARREIRA,Câmara,Bruna Monte Torres Teixeira,(85) 3331-1277,,https://camarabarreira.ce.gov.br/,"Rua Felix Pereira, 0920 - Centro - CEP: 62795-000 Barreira\CE",,,,,
BARRO,Câmara,CÂMARA,(88) 3554-1013,cambarro@barro.ce.leg.br,https://www.barro.ce.leg.br/,,,,,,
BARROQUINHA,Câmara,CÂMARA,,,https://www.camarabarroquinha.ce.gov.br/,,,,,,
BATURITÉ,Câmara,Francisca Eugência Pinheiro de Paula,8533470193,camaramunicipaldebaturite@hotmail.com,https://www.camarabaturite.ce.gov.br/,Trav: Cicero Segundo da Costa - Nº 1215 - Centro - CEP: 62760-000 - Baturité – CE,,,,,
BEBERIBE,Câmara,CÂMARA,(85) 9.8887-0917 ,contato@cmbeberibe.ce.gov.br,https://www.cmbeberibe.ce.gov.br/#gsc.tab=0,"Avenida Maria Calado, 0  Centro, Beberibe/CE",,,,,
BELA CRUZ,Câmara,Ana Tayline Vasconcelos Teofilo Morais,(88)9.9915-4475,cmbc2023@hotmail.com,https://www.cmbelacruz.ce.gov.br/,Câmara Municipal De Bela Cruz,,,,,
BOA VIAGEM,Câmara,CÂMARA,(88) 98181-1268,,https://www.camaraboaviagem.ce.gov.br/,,,,,,
BREJO SANTO,Câmara,CÂMARA,(88) 3531-1010 | (88) 3531-0447,,https://camarabrejosanto.ce.gov.br/,,,,,,
CAMOCIM,Câmara,Lorrany Vasconcelos Oliveira,88 3621.1429,ouvidoria@camaracamocim.ce.gov.br,https://www.camaracamocim.ce.gov.br/,"Praça José Severiano Morel , S/N , altos , Centro Camocim /CE",,,,,
CAMPOS SALES,Câmara,MILENA RODRIGUES RIBEIRO,,ouvidoria@cmcampossales.ce.gov.br,https://www.cmcampossales.ce.gov.br/,"Rua Francisco Gomes de souza, n° 190, Centro, Campos sales-CE.",,,,,
CANINDÉ,Câmara,CÂMARA,(85) 3343-5012,,https://cmcaninde.ce.gov.br/,,,,,,
CAPISTRANO,Câmara,BENIZIO PEREIRA DOS SANTOS,85 3326 1393,camaracapistrano@gmail.com,https://www.camaracapistrano.ce.gov.br/,CAMARA MUNICIPAL DE CAPISTRANO,,,,,
CARIRÉ,Câmara,FRANCISCA AGUIAR PORTELA,3646 1269,camaramunicipaldecarire@gmail.com,https://www.camaracarire.ce.gov.br/,Câmara Municipal De Cariré,,,,,
CARIDADE,Câmara,CÂMARA,(85)3324-1266,,https://www.camaracaridade.ce.gov.br/,,,,,,
CARIRIAÇU,Câmara,Aldemia de Souza Barros,(88) 3547-1209,ouvidoria@camaracaririacu.ce.gov.br,https://www.camaracaririacu.ce.gov.br/,Câmara Municipal de Caririaçu,,,,,
CARIUS,Câmara,CÂMARA,(88) 99727-5570,,https://www.camaracarius.ce.gov.br/,,,,,,
CARNAUBAL,Câmara,MARIA RAIANE SOUSA RIBEIRO,(88) 36501202,ouvidoria@camaracarnaubal.ce.gov.br,https://www.camaracarnaubal.ce.gov.br/,"Av. Paulo Sarazate, S/N - Centro - CEP: 63.375-000 - Carnaubal/CE

",,,,,
CASCAVEL,Câmara,CÂMARA,(85) 2180-8085,,https://cmcascavel.ce.gov.br/,,,,,,
CATARINA,Câmara,CÂMARA,(88) 98158-2271,,https://www.camaracatarina.ce.gov.br/,,,,,,
CATUNDA,Câmara,CÂMARA,(88) 99211-4035,,https://www.camaracatunda.ce.gov.br/,,,,,,
CAUCAIA,Câmara,CÂMARA,(85) 3342-1021,,https://www.cmcaucaia.ce.gov.br/,,,,,,
CEDRO,Câmara,JOSE CLERITON COSTA LEITE JUNIOR,(88) 9 9908-4084,ouvidoria@camaradecedro.ce.gov.br,https://www.camaradecedro.ce.gov.br/,Câmara Municipal de Cedro,,,,,
CHAVAL,Câmara,CÂMARA,88 3625-1282,contato@camarachaval.ce.gov.br,https://camarachaval.ce.gov.br/,"Rua Cel. José Porfírio, sn centro, CEP 62420-000, Chaval-Ce",,,,,
CHORÓ,Câmara,FRANCISCO ERIVALDO MIGUEL BARBOSA,(88)34381273,cmchoro@hotmail.com,https://www.camarachoro.ce.gov.br/,CÂMARA MUNICIPAL DE CHORO,,,,,
CHOROZINHO,Câmara,CÂMARA,(85)3319.1475,,https://www.camarachorozinho.ce.gov.br/,,,,,,
COREAÚ,Câmara,CÂMARA,(88) 98140-4200,,https://www.cmcoreau.ce.gov.br/,,,,,,
CRATEÚS,Câmara,CÂMARA,88 3691-3030,,https://camaracrateus.ce.gov.br/,Rua Carlos Rolim - Crateús/CE,,,,,
CRATO,Câmara,Carolaine da Silva Landim Cruz,(88) 3523-2702,ouvidoria@camaracrato.ce.gov.br,https://www.camaracrato.ce.gov.br/index.xhtml,"Rua Teófilo Siqueira 631, Centro, Crato/CE",,,,,
CROATÁ,Câmara,CÂMARA,(88) 3659-1213,,https://www.camaracroata.ce.gov.br/,,,,,,
CRUZ,Câmara,JUVENAL BEZERRIL DA SILVA,(88) 3660-1216,ouvidoria@cmcruz.ce.gov.br,https://cmcruz.ce.gov.br/,Av. Dep. Amadeu Filomeno - Aningas - Cruz - CE - Cep: 62595-000,,,,,
DEPUTADO IRAPUAN PINHEIRO,Câmara,CÂMARA,(88) 98182-3666,,https://camarairapuanpinheiro.ce.gov.br/,,,,,,
ERERÊ,Câmara,GERLIANE OLIVEIRA DE ANDRADE,(88) 988933749,cme_erere@hotmail.com,https://www.camaraerere.ce.gov.br/,"Av. Padre Daniel, Nº 169 - Centro - CEP: 63.470-000 – Ererê\CE",,,,,
EUSÉBIO,Câmara,CÂMARA,(85) 3260-1258,,https://cmeusebio.ce.gov.br/,,,,,,
FARIAS BRITO,Câmara,CÂMARA,(88)3544-1220,ouvidoria@camarafariasbrito.ce.gov.br,https://www.camarafariasbrito.ce.gov.br/,"Rua da Independência, 190, Nova Esperança, Farias Brito - CE, 63185-000",,,,,
FORQUILHA,Câmara,CÂMARA,,,https://www.camaraforquilha.ce.gov.br/,,,,,,
FORTALEZA,Câmara,CÂMARA,(85) 3444-8300,,https://www.cmfor.ce.gov.br/home,,,,,,
FORTIM,Câmara,CÂMARA,(88)3413-1575,ouvidoria@cmfortim.ce.gov.br,https://www.fortim.ce.leg.br/,"Shopping Boulevard, Avenida Joaquim Crisóstomo, 1049,Centro,Fortim, CE",,,,,
FRECHEIRINHA,Câmara,CÂMARA,(88) 3655-1404,,https://www.camarafrecheirinha.ce.gov.br/,,,,,,
GENERAL SAMPAIO,Câmara,CÂMARA,(85) 3357-1028,,https://www.camarageneralsampaio.ce.gov.br/,,,,,,
GRAÇA,Câmara,CÂMARA,,,https://www.cmgraca.ce.gov.br/site,,,,,,
GRANJA,Câmara,FRANCISCA AMANDA DIAS MOREIRA,88-36240034,ouvidoria@camaragranja.ce.gov.br,https://www.camaragranja.ce.gov.br/,"Rua: Valdemiro Cavalcante, S/N - Centro - CEP: 62.430-000 – Granja/CE",,,,,
GRANJEIRO,Câmara,CÂMARA,(88) 3519-1250,,https://www.camaragranjeiro.ce.gov.br/,,,,,,
GROAIRAS,Câmara,CÂMARA,(88) 3647 - 1104,,https://www.camaragroairas.ce.gov.br/,,,,,,
GUAIUBA,Câmara,CÂMARA,(85) 3376-1334,,https://camaraguaiuba.ce.gov.br/,,,,,,
GUARACIABA DO NORTE,Câmara,CÂMARA,(88) 3652-2175,,https://cmguaraciabadonorte.ce.gov.br/,,,,,,
GUARAMIRANGA,Câmara,CÂMARA,8533211448,camara.guaramiranga@gmail.com,https://www.camaraguaramiranga.ce.gov.br/,"Rua: Raimundo Nonato da Costa, Nº 021 - Centro - CEP: 62766-000 – Guaramiranga/CE",,,,,
HIDROLÂNDIA,Câmara,CÂMARA,(88) 3638-1102,,https://camarahidrolandia.ce.gov.br/,,,,,,
HORIZONTE,Câmara,CÂMARA,85 3336-1130,,https://www.horizonte.ce.leg.br/,,,,,,
IBARETAMA,Câmara,CÂMARA,,,https://camaraibaretama.ce.gov.br/,,,,,,
IBIAPINA,Câmara,CÂMARA,(88) 3653-1388,,https://www.cmibiapina.ce.gov.br/,,,,,,
IBICUITINGA,Câmara,CÂMARA,(88) 3425-1032,,https://cmibicuitinga.ce.gov.br/,,,,,,
ICAPUÍ,Câmara,VITOR FERREIRA LIMA,8834321230,ouvidoria@cmicapui.ce.gov.br,https://cmicapui.ce.gov.br/,Câmara Municipal de Icapuí,,,,,
ICÓ,Câmara,ANNA ALICE CARVALHO NUNES,(85) 3025-2726,ouvidoria@camaraico.ce.gov.br,https://camaraico.ce.gov.br/,Câmara Municipal de Icó,,,,,
IGUATU,Câmara,CÂMARA,(88) 3198-0997,,https://camaraiguatu.ce.gov.br/,,,,,,
INDEPENDÊNCIA,Câmara,OTACILIO GOMES VIEIRA JUNIOR,(88) 3675-1538,esic@camaraindependencia.ce.gov.br,https://www.camaraindependencia.ce.gov.br/,Câmara Municipal de Independência,,,,,
IPAPORANGA,Câmara,MARIA LUSANIRA DE OLIVEIRA,(88) 3684-1512,ouvidoriacamaraipaporanga@gmail.com | camaraipaporanga@gmail.com ,https://www.camaraipaporanga.ce.gov.br/,"Rua Augusto Evaristo, Nº 30 - Centro - CEP: 62.215-000 – Ipaporanga/CE",7h-13h,MARIA LUSANIRA DE OLIVEIRA,(88) 3684-1512,ouvidoriacamaraipaporanga@gmail.com | camaraipaporanga@gmail.com ,"Rua Augusto Evaristo, Nº 30 - Centro - CEP: 62.215-000 – Ipaporanga/CE"
IPAUMIRIM,Câmara,José Strauss de Sousa Silva Filho,(88) 3567-1525,camaraipaumirim@gmail.com,https://camaraipaumirim.ce.gov.br/,Rua Cel. Gustavo Lima - 230 - Centro - CEP: 63.340-000,,,,,
IPU,Câmara,THASSILLA MARIA SOARES DE OLIVEIRA,(88)36832696,camaraipu2013@hotmail.com,https://www.cmipu.ce.gov.br/,Câmara Municipal De Ipu,,,,,
IPUEIRAS,Câmara,ANA PONTES TAVARES, (88) 3685-1000,camaramunicipalipueiras@hotmail.com,https://www.camaraipueiras.ce.gov.br/,Rua Coronel Manoel Mourão s/n,,,,,
IRACEMA,Câmara,CÂMARA,(88) 3428-1288,camarairacema@brisanet.com.br,https://www.camarairacema.ce.gov.br/,"Rua: Gevársio Holanda, Nº 1254 - Centro - CEP: CEP: 62.980-00 – Iracema-CE",,,,,
IRAUÇUBA,Câmara,CÂMARA,,,https://www.iraucuba.ce.leg.br/,,,,,,
ITAIÇABA,Câmara,CÂMARA,(88)3410-1178,cmitaicaba@gmail.com,https://www.itaicaba.ce.leg.br/,"Av. Cel. João Correia, 381,Centro,Itaiçaba, CE",,,,,
ITAITINGA,Câmara,MARIA ISABEL SAMPAIO MOREIRA,8533771272,cmitaitinga@gmail.com,https://www.camaraitaitinga.ce.gov.br/,"Rua: João Ferreira Viana, Nº 325 - Centro - Cep: 61880-000 – Itaitinga/CE",,,,,
ITAPAJÉ,Câmara,CÂMARA,(85) 3346-0229,,https://cmitapaje.ce.gov.br/,,,,,,
ITAPIPOCA,Câmara,LARA JESSICA VIANA SEVERIANO,8836312103,ouvidoria@camaraitapipoca.ce.gov.br,https://camaraitapipoca.ce.gov.br/,"Rua: Frei Cassiano, Nº 750 - Boa Vista - Cep: 62500-000 – Itapipoca/CE",,,,,
ITAPIUNA,Câmara,CÂMARA,(88) 3431.1255,,https://www.itapiuna.ce.leg.br/,,,,,,
ITAREMA,Câmara,CÂMARA,(88) 9.9900-6530,,https://camaraitarema.ce.gov.br/,,,,,,
ITATIRA,Câmara,CÂMARA,(88) 3436-1009,,https://camaraitatira.ce.gov.br/,,,,,,
JAGUARETAMA,Câmara,CÂMARA,(88) 98161-1269,,https://www.camarajaguaretama.ce.gov.br/,,,,,,
JAGUARIBARA,Câmara,RUBENS ARAÚJO ALMEIDA,,rubensaraujo88@gmail.com,https://camarajaguaribara.ce.gov.br/,,,,,,
JAGUARIBE,Câmara,FRANCISCO NORMILTON CAVALCANTE AIRES,88 34545588,,https://www.camarajaguaribe.ce.gov.br/,,,,,,
JAGUARUANA,Câmara,ANTONIO JOSE DE ALMEIDA,88 3418 1276,,https://cmjaguaruana.ce.gov.br/,Câmara Municipal De Jaguaruana,,,,,
JARDIM,Câmara,CÂMARA, (88) 3555-1102,contato@camarajardim.ce.gov.br,https://www.camarajardim.ce.gov.br/,Câmara Municipal de Jardim,,,,,
JATI,Câmara,CÂMARA,(88) 3575-1208,,https://camarajati.ce.gov.br/,,,,,,
JIJOCA DE JERICOACOARA,Câmara,KARLLA EDUARDA CARVALHO FONTELES,(88) 3669-1142,camarajijoca@hotmail.com,https://www.cmjijocadejericoacoara.ce.gov.br/,"Av. Jericoacoara, Nº 474 - Centro - CEP: 62.598-000 - Jijoca de Jericoacoara/CE",,,,,
JUAZEIRO DO NORTE,Câmara,,(88) 2141-9423,,https://camarajuazeiro.ce.gov.br/,,,,,,
JUCÁS,Câmara,LIGIANE LUCAS MOURA,(88)3517-1221,ouvidoria@camarajucas.ce.gov.br,https://camarajucas.ce.gov.br/,,,,,,
LAVRAS DA MANGABEIRA,Câmara,BRUNO JONATAS DE ARAÚJO CAMPOS FERREIRA PINTO,88921488412,contato@camaralavras.ce.gov.br,https://www.camaralavras.ce.gov.br/,"Rua Cel Raimundo Augusto,75 - Centro - Lavras da Mangabeira|CE",,,,,
LIMOEIRO DO NORTE,Câmara,ITALO ROGER SANTIAGO DE MATOS,(88) 3423 3788,ouvidoriacmln@outlook.com,https://camaralimoeirodonorte.ce.gov.br/,"Sede da Câmara - Rua: Cel. Malveira , 2266 - Centro - CEP : 62930-000 - Limoeiro do Norte\CE",,,,,
MADALENA,Câmara,DEBORA RODRIGUES DE OLIVEIRA CUNHA,(88) 9.9235-2290,ouvidoriamadalena@gmail.com,https://www.camaramadalena.ce.gov.br/,"Av. Antonio Severo de Pinho, nº 400b - Centro CEP:63.860-000 – Madalena-CE",,,,,
MARACANAÚ,Câmara,FRANCISCA FRANCINEIRES PAULO,(85) 3381-1242,ouvidoria_camara@maracanau.ce.gov.br,https://www.camaramaracanau.ce.gov.br/,Câmara Municipal de Maracanaú,8h-14h,FRANCISCA FRANCINEIRES PAULO,(85) 3382-1242,ouvidoria_camara@maracanau.ce.gov.br,"Rua Luiz Gonzaga Honório de Abreu, 890 - Antônio Justa - Maracanaú/CE"
MARANGUAPE,Câmara,CÂMARA,(85) 3341-0030,,https://camaramaranguape.ce.gov.br/,,,,,,
MARCO,Câmara,MARIA ZILDA TEOFILA NETA,(88) 3664-1951,esic@camaramunicipaldemarco.ce.gov.br,https://www.camaramunicipaldemarco.ce.gov.br/,"Rios, S/N, Centro, CEP: 62.560-000",,,,,
MARTINÓPOLE,Câmara,CÂMARA,8836271353,,https://www.camaramartinopole.ce.gov.br/,,,,,,
MASSAPÊ,Câmara,CÂMARA,,,https://camaramassape.ce.gov.br/,,,,,,
MAURITI,Câmara,João Nielder Severo de Souza,(88) 3552-1480,ouvidoria@camarademauriti.ce.gov.br,https://www.camarademauriti.ce.gov.br/,"Rua Tabelião Chagas Sampaio, 517 - Centro - Mauriti/CE",8h-12h,João Nielder Severo de Souza,(88) 98173-6594,ouvidoria@camarademauriti.ce.gov.br,
MERUOCA,Câmara,CÂMARA,(88) 3649 - 1219,,https://camarameruoca.ce.gov.br/,,,,,,
MILAGRES,Câmara,CÂMARA,(88) 3553-1381,camaramilagres@hotmail.com (diz que tá com a caixa de entrada cheia),https://camaramilagres.ce.gov.br/,Câmara Municipal De Milagres,,,,,
MILHÃ,Câmara,CÂMARA,(88) 99964-3022,,https://camaramilha.ce.gov.br/,,,,,,
MIRAÍMA,Câmara,MONIQUE MERCIA GOMES CHAGAS,(88)36301101,camarademiraima@gmail.com,https://www.cmmiraima.ce.gov.br/,Câmara Municipal De Miraíma,,,,,
MISSÃO VELHA,Câmara,FRANCISCA VERONICA GOMES MONTEIRO,(88) 99714-2856,camaramissaovelha@camaramissaovelha.ce.gov.br,https://www.camaramissaovelha.ce.gov.br/,Câmara Municipal de Missão Velha,,,,,
MOMBAÇA,Câmara,RAFAEL MARQUES BRAGA,(88) 3583-1504,ouvidoria@camaramombaca.ce.gov.br,https://camaramombaca.ce.gov.br/ ,,,,,,
MONSENHOR TABOSA,Câmara,CÂMARA,(88) 3696-1204,ouvidoria@cmmonsenhortabosa.ce.gov.br,https://www.cmmonsenhortabosa.ce.gov.br/ ,Câmara Municipal De Monsenhor Tabosa,,,,,
MORADA NOVA,Câmara,RAIMUNDA VANESSA GOMES DE FREITAS,88 3422 4925,ouvidoriacmmn@hotmail.com,https://www.cmmoradanova.ce.gov.br/ ,Câmara Municipal De Morada Nova,,,,,
MORAÚJO,Câmara,CÂMARA,(88) 3642-1202,,https://www.cmmoraujo.ce.gov.br/ ,,,,,,
MORRINHOS,Câmara,RORAJLA RIBEIRO DUTRA DOS SANTOS,8836651148,camaramorrinhos@hotmail.com,https://camaramorrinhos.ce.gov.br/ ,"Rua: José Ibiapina Rocha, S/N - Centro - CEP: 62.550-000 – Morrinhos/CE",,,,,
MUCAMBO,Câmara,CÂMARA,,,https://www.camaramucambo.ce.gov.br/ ,,,,,,
MULUNGU,Câmara,CÂMARA,8533281575,camara.mulungu@yahoo.com.br,https://camaramulungu.ce.gov.br/ ,"PÇ: Coletor Bezerra Borges, S/N - Centro - Cep: 62764-000 – Mulungu/CE",,,,,
NOVA OLINDA,Câmara,CÂMARA,(88) 3546.1537,,https://www.camaranovaolinda.ce.gov.br/ ,,,,,,
NOVA RUSSAS,Câmara,CÂMARA,(88) 3672-6371,,https://cmnovarussas.ce.gov.br/ ,,,,,,
NOVO ORIENTE,Câmara,DHIEILA MARIA SOUSA SAMPAIO,(88) 3629-1122,gpr.cm.novooriente@hotmail.com,https://camaranovooriente.ce.gov.br/ ,Rua: Travessa Francisco Freitas - Nº 1 - Centro - CEP: 63740-000 - Novo Oriente/CE,,,,,
OCARA,Câmara,CÂMARA,(85) 3322-1003,,https://cmocara.ce.gov.br/ ,,,,,,
ORÓS,Câmara,MARILIA SOARES SOUSA,,ouvidoria@camaraoros.ce.gov.br,https://camaraoros.ce.gov.br/,,,,,,
PACAJUS,Câmara,VINICIUS ALVES DA SILVA,(85) 3348-0205,ouvidoria@camarapacajus.ce.gov.br,https://camarapacajus.ce.gov.br/,"Rua: Raimundo Costa, Nº 553 - Centro - CEP: 62.870-000 – Pacajus/CE",,,,,
PACATUBA,Câmara,ANTONIA ADRIANY RODRIGUES DA COSTA,8533451284,ouvidoria@cmpacatuba.ce.gov.br,https://www.cmpacatuba.ce.gov.br/,"Rua: Major Crisanto de Almeida, Nº 195 - Centro - CEP: 61.800-000 – Pacatuba/CE",,,,,
PACOTI,Câmara,CÂMARA,(85) 3325-1210,,https://cmpacoti.ce.gov.br/,,,,,,
PACUJÁ,Câmara,CÂMARA,(88) 3641 - 1113,,https://www.camarapacuja.ce.gov.br/,,,,,,
PALHANO,Câmara,CÂMARA,(88) 3415-1010,,https://www.camarapalhano.ce.gov.br/,,,,,,
PALMÁCIA,Câmara,CÂMARA,(85) 3339-1776,,https://cmpalmacia.ce.gov.br/,,,,,,
PARACURU,Câmara,MARCIA DA SILVA PEREIRA,(85)992651124,ouvidoria@camaradeparacuru.ce.gov.br,https://camaradeparacuru.ce.gov.br/,"Rua: São João Evangelista, Nº 459 - CEP: 62.680-000 - Bairro Paracuru Beach/CE",,,,,
PARAIPABA,Câmara,MARIA RUTH CORDEIRO CHAVES RODRIGUES,,ouvidoria@camaraparaipaba.ce.gov.br,https://www.camaraparaipaba.ce.gov.br/,"Av. Flavio Granjeiro, 27 A - Centro Paraipaba-CE | CEP: 62685-000",,,,,
PARAMBU,Câmara,CÂMARA,(88)3448-1191,,https://www.camaraparambu.ce.gov.br/CAMARAPARAMBU/faces/jsp/inicio.jsp,,,,,,
PARAMOTI,Câmara,MARIA CYDALIA BARBOSA GAMA,(85) 992626315,ouvidoria@paramoti.ce.gov.br,https://www.paramoti.ce.gov.br/secretaria.php?sec=37,"Rua: Santa Ana, Nº 64 - Centro - CEP: 62.736-000 – Paramoti/CE",,,,,
PEDRA BRANCA,Câmara,CÂMARA,(88)3515.1244,,https://www.camarapedrabranca.ce.gov.br/,,,,,,
PENAFORTE,Câmara,CÂMARA,(88) 3559-1239,,https://camarapenaforte.ce.gov.br/,,,,,,
PENTECOSTE,Câmara,FRANCISCO JONAS PINTO SILVEIRA,(85) 991108580,ouvidoria@cmpentecoste.ce.gov.br,https://cmpentecoste.ce.gov.br/,"RUA DR. MOREIRA, 352 - CENTRO - CEP: 62.640-000 – PENTECOSTE/CE",,,,,
PEREIRO,Câmara,CÂMARA,,,https://camarapereiro.ce.gov.br/,,,,,,
PINDORETAMA,Câmara,JESSICA HOLANDA PEREIRA,8533751555,ouvidoria@pindoretama.ce.leg.br,https://pindoretama.ce.leg.br/,Câmara Municipal De Pindoretama,,,,,
PIQUET CARNEIRO,Câmara,DANIELE MACHADO DE LIMA,(88) 3516-1699,secretaria@camarapiquetcarneiro.ce.gov.br,https://www.camarapiquetcarneiro.ce.gov.br/,,,,,,
PIRES FERREIRA,Câmara,CÂMARA,88998640900,,https://cmpiresferreira.ce.gov.br/site,,,,,,
PORANGA,Câmara,CÂMARA,(88)36581228,camara.poranga2015@gmail.com,https://www.poranga.ce.leg.br/ouvidoria,Câmara Municipal de Poranga,8h-14h,Jean Lucas Torres Guimarães,,contato@poranga.ce.leg.br,
PORTEIRAS,Câmara,CÂMARA,,,https://camaraporteiras.ce.gov.br/,,,,,,
POTENGI,Câmara,CÂMARA,(88) 3538-1288,ouvidoria@camarapotengi.ce.gov.br,https://camarapotengi.ce.gov.br/,"Rua Francisco Guedes, 176 - Centro - CEP 63.160-000 – Potengi-CE",,,,,
POTIRETAMA,Câmara,MARIA DO DESTERRO PORTO BESSA MELO,88996615597,camaramunicipalpotiretama@hotmail.com,https://www.camarapotiretama.ce.gov.br/,"Rua: Edilson Vieira, Nº 554 - Centro - CEP: 62.990-000 – Potiretama-CE",,,,,
QUITERIANOPÓLIS,Câmara,CÂMARA,(88) 3657-1006,,https://camaraquiterianopolis.ce.gov.br/,,,,,,
QUIXADÁ,Câmara,CÂMARA,(88) 3412-0442,,https://www.camaraquixada.ce.gov.br/,,,,,,
QUIXELÔ,Câmara,CÂMARA,(88)3579-1212,,https://www.camaraquixelo.ce.gov.br/,,,,,,
QUIXERAMOMBIM,Câmara,Antonia Salete Costa de Lima,(88) 3441-0043,cmq@cmquixeramobim.ce.gov.br,https://www.cmquixeramobim.ce.gov.br/,"Rua Cônego Pinto de Mendonça, n.º 60",,,,,
QUIXERÉ,Câmara,Ana Carolina da Cunha Sousa,(85) 4042-7430,ouvidoria@camaraquixere.ce.gov.br,https://camaraquixere.ce.gov.br/,"RUA JOSE GONÇALVES LIMA, Nº 1190, CENTRO",,,,,
REDENÇÃO,Câmara,Adriana Brito de Lima,(85) 3332-1310,ouvidoria.cmr@hotmail.com,https://camararedencao.ce.gov.br/,"Avenida da Abolição, s/n, próximo ao CRAS - Centro - Redenção/CE",7h-12h,Marigélica Freire de Souza Fraga,(85) 3332-1310,ouvidoria.cmr@hotmail.com,"Avenida da Abolição, s/n, próximo ao CRAS - Centro - Redenção/CE"
RERIUTABA,Câmara,CÂMARA,(88) 98214-5757,,https://camarareriutaba.ce.gov.br/,,,,,,
RUSSAS,Câmara,Francisca Tatiana da Silva,,tatianasilva33m@gmail.com,https://camararussas.ce.gov.br/,,,,,,
SABOEIRO,Câmara,CÂMARA,883526000,camarasaboeiro1920@gmail.com,https://www.camarasaboeiro.ce.gov.br/,,,,,,
SALITRE,Câmara,CÂMARA,(88) 3537-1030,,https://www.camarasalitre.ce.gov.br/,,,,,,
SANTA QUITÉRIA,Câmara,CÂMARA,(88) 3628-0801,,https://camarasantaquiteria.ce.gov.br/,,,,,,
SANTANA DO ACARAÚ,Câmara,CÂMARA,(85) 3345-1526,,https://www.cmsantanadoacarau.ce.gov.br/,,,,,,
SANTANA DO CARIRI,Câmara,CÂMARA,(88) 3545-1211,,https://camarasantanadocariri.ce.gov.br/,,,,,,
SÃO BENEDITO,Câmara,João Ferreira Freire,(88) 3626-1238,cmsb1718@gmail.com,https://www.cmsaobenedito.ce.gov.br/,Câmara Municipal de São Benedito,,,,,
SÃO GONÇALO DO AMARANTE,Câmara,CÂMARA,(85) 3361-0171,ouvidoria@cmaquiraz.ce.gov.br,https://cmsga.ce.gov.br/,Câmara Municipal de Aquiraz,,,,,
SÃO JOÃO DO JAGUARIBE,Câmara,CÂMARA,(88) 3420-1527,cmunicipalsjj@yahoo.com.br,https://cmsaojoaodojaguaribe.ce.gov.br/,"Praça: Celso Chaves, S/N - Centro - CEP: 62.965-000 - São João do Jaguaribe\CE",,,,,
SÃO LUIZ DO CURU,Câmara,CÂMARA,(85) 3355-1222,,https://www.camarasaoluisdocuru.ce.gov.br/,,,,,,
SENADOR POMPEU,Câmara,IVONEIDE COUTINHO DE LIMA,(88) 3449-1235,cmsp@camarasenadorpompeu.ce.gov.br,https://www.camarasenadorpompeu.ce.gov.br/,"RUA PROFESSOR CAVALCANTE, Nº 635 FÁTIMA",,,,,
SENADOR SÁ,Câmara,CÂMARA,,,https://cmsenadorsa.ce.gov.br/home/,,,,,,
SOBRAL,Câmara,CÂMARA,(88) 3677-7626,(88) 3212-0470,https://www.camarasobral.ce.gov.br/,"Rua Conselheiro Rodrigues Júnior, S/N (térreo) - Centro – Sobral-CE",,,,,
SOLONÓPOLE,Câmara,MARIA GORETE PINHEIRO MAIA LIMA,(88)3518-1671,ouvidoria@camarasolonopole.ce.gov.br,https://camarasolonopole.ce.gov.br/ ,"RUA DR. QUEIROZ LIMA, S/N- CENTRO",,,,,
TABULEIRO DO NORTE,Câmara,FRANCISCO NEUDO SOARES,88997234086,ouvidoria@cmtabuleiro.ce.gov.br,https://cmtabuleiro.ce.gov.br/ ,"RUA MAIA ALARCON, 371 - CENTRO - CEP: 62960-000 - TABULEIRO DO NORTE\CE",,,,,
TAMBORIL,Câmara,CÂMARA,,,https://www.camaratamboril.ce.gov.br/ ,,,,,,
TARRAFAS,Câmara,CÂMARA,(88) 3549-1034,ouvidoria@camaratarrafas.ce.gov.br,https://camaratarrafas.ce.gov.br/ ,"Avenida Maria Luiza Leite, S/N - Bulandeira - CEP 63.145-000 – Tarrafas-CE",,,,,
TAUÁ,Câmara,WELLINGTON RODRIGUES MEDEIROS,8834372599,ouvidoria@camarataua.ce.gov.br,https://www.camarataua.ce.gov.br/,"Rua: Silvestre Goncalves, Nº 80 - Centro - CEP: 63660-000 - Tauá/CE",,,,,
TEJUÇUOCA,Câmara,CÂMARA,(85) 3323-1136,,https://cmtejucuoca.ce.gov.br/,,,,,,
TIANGUÁ,Câmara,ÍTALO DE VASCONCELOS QUEIROZ,(88) 98829-2290,ouvidoria@camaratiangua.ce.gov.br,https://www.camaratiangua.ce.gov.br/,,,,,,
TRAIRI,Câmara,CÂMARA,,,,,,,,,
TURURU,Câmara,LARYSSE MENESES DE SOUSA,88 34545588,,https://www.camaratururu.ce.gov.br/,Câmara Municipal De Tururu(Rua neném Barroso-N 18),,,,,
UBAJARA,Câmara,CÂMARA,(88) 3634-1246,,https://www.cmubajara.ce.gov.br/,,,,,,
UMARI,Câmara,JOSÉ DIOGO FERNANDES ALVES,(88) 98823-8385,ouvidoria@camaraumari.ce.gov.br,https://www.camaraumari.ce.gov.br/,Câmara Municipal De Umari,,,,,
UMIRIM,Câmara,GEANE CARLA LOPES MATIAS,,cmumirim2024@gmail.com,https://cmumirim.ce.gov.br/,,,,,,
URUBURETAMA,Câmara,CÂMARA,,,https://www.camarauruburetama.ce.gov.br/,,,,,,
URUOCA,Câmara,CÂMARA,8836481099,cmuruoca@gmail.com,https://www.camarauruoca.ce.gov.br/,"Rua: João Rodrigues, 139 - Centro - CEP: 62.460-000 - Uruoca\CE",,,,,
VARJOTA,Câmara,JHENIFER MESQUITA DANTAS,,ouvidoria@camaravarjota.ce.gov.br,https://www.camaravarjota.ce.gov.br/,,,,,,
VARZEA ALEGRE,Câmara,HUGO ALVES DA COSTA,(88) 3541.2769,camara@hotmail.com,https://www.camaravarzeaalegre.ce.gov.br/,Câmara Municipal De Várzea Alegre-CE,,,,,
VIÇOSA DO CEARÁ,Câmara,MARCELLE MARIA DO ARAÚJO LIMA LOIOLA,(88) 3632-1422,camaravicosa@outlook.com,https://camaravicosadoceara.ce.gov.br/,"Av. Major Felizardo de Pinho Pessoa, Nº 90 - Centro - CEP: 62.300-000 - Viçosa do Ceará/CE",,,,,
BREJO SANTO,Secretaria de Saúde Municipal,VANESCA LUCENA SANTANA,(88) 99616-0494,ouvidoriasaudebrejo@gmail.com,Não tem,"Avenida João Inácio de Lucena, 1600 - Brejo Santo/CE",8h-11h30 / 13h-14h30,,,,
ABAIARA,Secretaria de Saúde Municipal,PAULA VITÓRIA DA SILVA MOREIRA,Não tem,ouvidoria@abaiara.ce.gov.br,www.abaiara.ce.gov.br,Rua Expedito Oliveira das Neves - Abaiara/CE,8h-12h / 13h-17h,,,,
PORTEIRAS,Secretaria de Educação Municipal,Não informado,(88) 3557-1254,ouvidoria@porteiras.ce.gov.br,Não tem,"Rua Mestre Zuca, 16 - Crato/CE",8h-11h / 13h-17h,,,,
PORTEIRAS,Secretaria de Saúde Municipal,Kaline e Ana,(88) 98107-9477,Não tem,Não tem,Rua José de Alencar,8h-12h / 13h30-16h30,,,,
PORTEIRAS,Secretaria de Educação Municipal,Não informado,Não informado,Não informado,Não informado,Não informado,Não informado,,,,
BARRO,Secretaria de Saúde Municipal,Não informado,Não informado,Não informado,Não informado,Não informado,Não informado,,,,
MAURITI,Secretaria de Saúde Municipal,Flávia Pereira de Moraes,(88) 99350-2170,ouvidoriasaude@mauriti.ce.gov.br,Não tem,Avenida Buriti Grande - Mauriti/CE,8h-16h (seg a qui) 8h-14h (sex),,,,
AURORA,Secretaria de Saúde Municipal,Renata Sobreira Cândido,(88) 99372-7278,ouvidoria_saudeaurora@outlook.com,Não tem,"Avenida Antônio Ricardo, s/n - Centro - Aurora/CE",7h-13h,,,,
MAURITI,Secretaria de Educação Municipal,Luana Sousa Santana,(88) 99714-0027,ouvidoriasme@gmail.com | ouvidoriasmemauriti@gmail.com,Não tem,Secretaria Municipal de Educação - Mauriti/CE,8h-14h,,,,
PORANGA,Secretaria de Saúde Municipal,Alaides Rodrigues Martins,(88) 99782-7384 - pessoal,aalaidesmartins2019@gmail.com,Não tem,Avenida Travessa Doutor Epitácio de Pinho,8h-12h / 13h-17h,,,,
NOVO ORIENTE,Secretaria do Trabalho e Assistência Social Municipal,(?) Pereira de Sousa,Ainda não tem,Ainda não tem,Não tem,"Rua Frei Vidal, s/n - Lagoa do Tigre Norte - Novo Oriente/CE",7h-13h,,,,
CRATEÚS,Secretaria de Segurança Pública Municipal,Gil Eanes Bonfim,(88) 98844-1277,ouvidoriagcm@crateus.ce.gov.br,Não tem,"Terminal Rodoviário de Crateús, Box 14, Rua Oscar Lopes - Crateús/CE",8h-13h,,,,
PACATUBA,Secretaria (?),Maria José Souza dos Santos,Não tem ainda,ouvidoria@pacatuba.ce.gov.br,pacatuba.ce.gov.br,"Rua Josué Matues Figueiredo, 293 - Centro - Pacatuba/CE",8h-16h,,,,
PACATUBA,Secretaria de Saúde Municipal,Jacinto Brasa de Sousa,(85) 99816-2414,Não informado,Não informado,Não informado,8h-16,,,,
MARACANAÚ,Secretaria de Saúde Municipal,Clara de Assis Silva de Brito Costa,(85) 3521-6527 | (85) 99781-0329 (whatsapp),ouvidoriasaude@maracanau.ce.gov.br,Não tem,"Avenida II, 150 - Conjunto Jereissati I - Maracanaú/CE",8h-12h / 13h-16h (seg a qui) | 8h-14h (sex),,,,
MARACANAÚ,Hospital Municipal João Elísio de Holanda (?),Nadia Naira Coelho Teixeira Guimarães,(85) 3521-5612,ouvidoria_hospital@maracanau.ce.gov.br,maracanau.ce.gov.br,"Rua João Alencar, s/n - Centro - Maracanaú/CE",8h-16h,,,,
MARACANAÚ,Secretaria da Educação Municipal,Pedro Hítalo,(85) 3521-5684 | (85) 98138-8505 (whatsapp),ouvidoria@edu.maracanau.ce.gov.br,Não tem,"Rua Capitão Valdemar de Lima, 202 - Centro - Maracanaú/CE",8h-16h (seg a qui) | 8h-14h (sex),,,,
REDENÇÃO,Secretaria de Saúde Municipal,Roberta Maria Farias dos Santos,Não tem,Não informado,Não tem,Avenida Santos Dummont - Redenção/CE,8h-12h,,,,
ACARAPE,Câmara,Francisca Ranielly Andrade Sales,(85) 99203-5610,raniellysales77@gmail.com,https://acarape.ce.gov.br/ouvidoria.php,"Rua José Guilherme Costa, 44 - Centro - Acarape/CE",8h-14h,,,,
